ONEWEB-0504             
1 54122U 22138K   25232.89375826  .00000002  00000+0 -28018-4 0  9997
2 54122  87.9266   4.6547 0002001  89.8762 270.2600 13.19726673137220
ONEWEB-0505             
1 54123U 22138L   25232.89060878  .00000008  00000+0 -13446-4 0  9991
2 54123  87.9264   4.6443 0001980  79.6402 280.4954 13.19724489137203
ONEWEB-0506             
1 54124U 22138M   25232.78950913  .00000072  00000+0  14693-3 0  9992
2 54124  87.9264   4.6613 0001881  91.3797 268.7552 13.19726871137188
ONEWEB-0507             
1 54125U 22138N   25232.88585856  .00000018  00000+0  11479-4 0  9994
2 54125  87.9254   4.6945 0001771  89.9506 270.1830 13.19725989137247
ONEWEB-0508             
1 54126U 22138P   25232.88269969  .00000038  00000+0  63784-4 0  9997
2 54126  87.9262   4.6788 0001694  84.2721 275.8605 13.19726923137222
ONEWEB-0509             
1 54127U 22138Q   25232.78162704  .00000081  00000+0  16889-3 0  9997
2 54127  87.9267   4.6609 0001817  93.1659 266.9682 13.19725435137184
ONEWEB-0510             
1 54128U 22138R   25232.83156044 -.00000016  00000+0 -70169-4 0  9996
2 54128  87.9302 334.2969 0002052 115.4563 244.6782 13.20768747139631
ONEWEB-0511             
1 54129U 22138S   25232.77845094 -.00000189  00000+0 -50425-3 0  9993
2 54129  87.9263   4.6665 0002125  96.8227 263.3147 13.19725654137212
